{"type": "FeatureCollection", "features": [ {"type": "Feature", "properties": {"norad_id": 67091, "name": "STARLINK-36097", "group": "last-30-days", "lat": -27.54439180948703, "lon": -148.4118347644873, "alt_km": 307.93103875242286, "timestamp": "2025-12-22T09:53:36.147867+00:00", "meta": {"OBJECT_NAME": "STARLINK-36097", "OBJECT_ID": "2025-298S", "EPOCH": "2025-12-22T04:00:01.998720", "MEAN_MOTION": 15.89386243, "ECCENTRICITY": 0.0003607, "INCLINATION": 69.9971, "RA_OF_ASC_NODE": 223.2511, "ARG_OF_PERICENTER": 273.2184, "MEAN_ANOMALY": 92.9017, "EPHEMERIS_TYPE": 0, "CLASSIFICATION_TYPE": "U", "NORAD_CAT_ID": 67091, "ELEMENT_SET_NO": 999, "REV_AT_EPOCH": 249, "BSTAR": 0.00015655, "MEAN_MOTION_DOT": 0.00044368, "MEAN_MOTION_DDOT": 4.6165e-06}, "tle": {"line1": "1 67091U 25298S   25356.16668980  .00044368  46165-5  15655-3 0  9991", "line2": "2 67091  69.9971 223.2511 0003607 273.2184  92.9017 15.89386243  2497"}}, "geometry": {"type": "Point", "coordinates": [-148.4118347644873, -27.54439180948703]}}, {"type": "Feature", "properties": {"norad_id": 67092, "name": "STARLINK-35792", "group": "last-30-days", "lat": -25.925192558342463, "lon": -147.66167087543488, "alt_km": 307.6340264245673, "timestamp": "2025-12-22T09:53:36.147878+00:00", "meta": {"OBJECT_NAME": "STARLINK-35792", "OBJECT_ID": "2025-298T", "EPOCH": "2025-12-22T04:00:01.998720", "MEAN_MOTION": 15.89423865, "ECCENTRICITY": 0.0003846, "INCLINATION": 69.9971, "RA_OF_ASC_NODE": 223.2489, "ARG_OF_PERICENTER": 274.1619, "MEAN_ANOMALY": 93.6734, "EPHEMERIS_TYPE": 0, "CLASSIFICATION_TYPE": "U", "NORAD_CAT_ID": 67092, "ELEMENT_SET_NO": 999, "REV_AT_EPOCH": 243, "BSTAR": 0.00021225, "MEAN_MOTION_DOT": 0.00060715, "MEAN_MOTION_DDOT": 5.2241e-06}, "tle": {"line1": "1 67092U 25298T   25356.16668980  .00060715  52241-5  21225-3 0  9998", "line2": "2 67092  69.9971 223.2489 0003846 274.1619  93.6734 15.89423865  2430"}}, "geometry": {"type": "Point", "coordinates": [-147.66167087543488, -25.925192558342463]}}, {"type": "Feature", "properties": {"norad_id": 67093, "name": "STARLINK-35784", "group": "last-30-days", "lat": -24.066454751099084, "lon": -146.82762508969105, "alt_km": 308.07979050137146, "timestamp": "2025-12-22T09:53:36.147890+00:00", "meta": {"OBJECT_NAME": "STARLINK-35784", "OBJECT_ID": "2025-298U", "EPOCH": "2025-12-22T04:00:01.998720", "MEAN_MOTION": 15.89499327, "ECCENTRICITY": 0.0003692, "INCLINATION": 69.9969, "RA_OF_ASC_NODE": 223.2465, "ARG_OF_PERICENTER": 261.4694, "MEAN_ANOMALY": 108.3305, "EPHEMERIS_TYPE": 0, "CLASSIFICATION_TYPE": "U", "NORAD_CAT_ID": 67093, "ELEMENT_SET_NO": 999, "REV_AT_EPOCH": 249, "BSTAR": -0.00018233, "MEAN_MOTION_DOT": -0.00054653, "MEAN_MOTION_DDOT": 4.8669e-06}, "tle": {"line1": "1 67093U 25298U   25356.16668980 -.00054653  48669-5 -18233-3 0  9999", "line2": "2 67093  69.9969 223.2465 0003692 261.4694 108.3305 15.89499327  2493"}}, "geometry": {"type": "Point", "coordinates": [-146.82762508969105, -24.066454751099084]}}, {"type": "Feature", "properties": {"norad_id": 67094, "name": "STARLINK-36202", "group": "last-30-days", "lat": -22.058203517954254, "lon": -145.95523709176678, "alt_km": 306.66677251597866, "timestamp": "2025-12-22T09:53:36.147900+00:00", "meta": {"OBJECT_NAME": "STARLINK-36202", "OBJECT_ID": "2025-298V", "EPOCH": "2025-12-22T04:00:01.998720", "MEAN_MOTION": 15.89660814, "ECCENTRICITY": 0.0004779, "INCLINATION": 69.9968, "RA_OF_ASC_NODE": 223.2441, "ARG_OF_PERICENTER": 279.4478, "MEAN_ANOMALY": 92.4006, "EPHEMERIS_TYPE": 0, "CLASSIFICATION_TYPE": "U", "NORAD_CAT_ID": 67094, "ELEMENT_SET_NO": 999, "REV_AT_EPOCH": 249, "BSTAR": -0.0006736, "MEAN_MOTION_DOT": -0.00200238, "MEAN_MOTION_DDOT": 1.6948e-05}, "tle": {"line1": "1 67094U 25298V   25356.16668980 -.00200238  16948-4 -67360-3 0  9991", "line2": "2 67094  69.9968 223.2441 0004779 279.4478  92.4006 15.89660814  2495"}}, "geometry": {"type": "Point", "coordinates": [-145.95523709176678, -22.058203517954254]}}, {"type": "Feature", "properties": {"norad_id": 67095, "name": "STARLINK-36227", "group": "last-30-days", "lat": -20.224189419407164, "lon": -145.18213572363004, "alt_km": 307.02128930131494, "timestamp": "2025-12-22T09:53:36.147921+00:00", "meta": {"OBJECT_NAME": "STARLINK-36227", "OBJECT_ID": "2025-298W", "EPOCH": "2025-12-22T04:00:01.998720", "MEAN_MOTION": 15.89701954, "ECCENTRICITY": 0.0003475, "INCLINATION": 69.9967, "RA_OF_ASC_NODE": 223.2414, "ARG_OF_PERICENTER": 277.2963, "MEAN_ANOMALY": 96.5012, "EPHEMERIS_TYPE": 0, "CLASSIFICATION_TYPE": "U", "NORAD_CAT_ID": 67095, "ELEMENT_SET_NO": 999, "REV_AT_EPOCH": 243, "BSTAR": -0.00069405, "MEAN_MOTION_DOT": -0.00206602, "MEAN_MOTION_DDOT": 1.7787e-05}, "tle": {"line1": "1 67095U 25298W   25356.16668980 -.00206602  17787-4 -69405-3 0  9997", "line2": "2 67095  69.9967 223.2414 0003475 277.2963  96.5012 15.89701954  2439"}}, "geometry": {"type": "Point", "coordinates": [-145.18213572363004, -20.224189419407164]}}, {"type": "Feature", "properties": {"norad_id": 67096, "name": "STARLINK-36228", "group": "last-30-days", "lat": -18.66776464933383, "lon": -144.54083534510553, "alt_km": 306.85846078651593, "timestamp": "2025-12-22T09:53:36.147932+00:00", "meta": {"OBJECT_NAME": "STARLINK-36228", "OBJECT_ID": "2025-298X", "EPOCH": "2025-12-22T04:00:01.998720", "MEAN_MOTION": 15.89554718, "ECCENTRICITY": 0.00042, "INCLINATION": 69.9968, "RA_OF_ASC_NODE": 223.2395, "ARG_OF_PERICENTER": 272.7612, "MEAN_ANOMALY": 102.754, "EPHEMERIS_TYPE": 0, "CLASSIFICATION_TYPE": "U", "NORAD_CAT_ID": 67096, "ELEMENT_SET_NO": 999, "REV_AT_EPOCH": 243, "BSTAR": 0.00045992, "MEAN_MOTION_DOT": 0.00133898, "MEAN_MOTION_DDOT": 1.0282e-05}, "tle": {"line1": "1 67096U 25298X   25356.16668980  .00133898  10282-4  45992-3 0  9990", "line2": "2 67096  69.9968 223.2395 0004200 272.7612 102.7540 15.89554718  2437"}}, "geometry": {"type": "Point", "coordinates": [-144.54083534510553, -18.66776464933383]}}, {"type": "Feature", "properties": {"norad_id": 67097, "name": "STARLINK-36222", "group": "last-30-days", "lat": -16.855018700106264, "lon": -143.80991938795702, "alt_km": 306.5841201220792, "timestamp": "2025-12-22T09:53:36.147945+00:00", "meta": {"OBJECT_NAME": "STARLINK-36222", "OBJECT_ID": "2025-298Y", "EPOCH": "2025-12-22T04:00:01.998720", "MEAN_MOTION": 15.89574261, "ECCENTRICITY": 0.0004452, "INCLINATION": 69.9968, "RA_OF_ASC_NODE": 223.2372, "ARG_OF_PERICENTER": 273.4827, "MEAN_ANOMALY": 103.948, "EPHEMERIS_TYPE": 0, "CLASSIFICATION_TYPE": "U", "NORAD_CAT_ID": 67097, "ELEMENT_SET_NO": 999, "REV_AT_EPOCH": 243, "BSTAR": 0.00057984, "MEAN_MOTION_DOT": 0.00169307, "MEAN_MOTION_DDOT": 1.4132e-05}, "tle": {"line1": "1 67097U 25298Y   25356.16668980  .00169307  14132-4  57984-3 0  9997", "line2": "2 67097  69.9968 223.2372 0004452 273.4827 103.9480 15.89574261  2439"}}, "geometry": {"type": "Point", "coordinates": [-143.80991938795702, -16.855018700106264]}}, {"type": "Feature", "properties": {"norad_id": 67098, "name": "STARLINK-36205", "group": "last-30-days", "lat": -14.800573958621817, "lon": -142.99950882233946, "alt_km": 306.6320388792219, "timestamp": "2025-12-22T09:53:36.147957+00:00", "meta": {"OBJECT_NAME": "STARLINK-36205", "OBJECT_ID": "2025-298Z", "EPOCH": "2025-12-22T04:00:01.998720", "MEAN_MOTION": 15.89863337, "ECCENTRICITY": 0.0003325, "INCLINATION": 69.9966, "RA_OF_ASC_NODE": 223.2348, "ARG_OF_PERICENTER": 272.5278, "MEAN_ANOMALY": 106.9609, "EPHEMERIS_TYPE": 0, "CLASSIFICATION_TYPE": "U", "NORAD_CAT_ID": 67098, "ELEMENT_SET_NO": 999, "REV_AT_EPOCH": 249, "BSTAR": -0.0010101, "MEAN_MOTION_DOT": -0.00302473, "MEAN_MOTION_DDOT": 3.3345e-05}, "tle": {"line1": "1 67098U 25298Z   25356.16668980 -.00302473  33345-4 -10101-2 0  9999", "line2": "2 67098  69.9966 223.2348 0003325 272.5278 106.9609 15.89863337  2496"}}, "geometry": {"type": "Point", "coordinates": [-142.99950882233946, -14.800573958621817]}}, {"type": "Feature", "properties": {"norad_id": 67099, "name": "STARLINK-36193", "group": "last-30-days", "lat": -11.64666624588404, "lon": -141.78610437299739, "alt_km": 305.8624990703829, "timestamp": "2025-12-22T09:53:36.147967+00:00", "meta": {"OBJECT_NAME": "STARLINK-36193", "OBJECT_ID": "2025-298AA", "EPOCH": "2025-12-22T04:00:01.998720", "MEAN_MOTION": 15.89953327, "ECCENTRICITY": 0.0003443, "INCLINATION": 69.9967, "RA_OF_ASC_NODE": 223.231, "ARG_OF_PERICENTER": 277.739, "MEAN_ANOMALY": 105.0239, "EPHEMERIS_TYPE": 0, "CLASSIFICATION_TYPE": "U", "NORAD_CAT_ID": 67099, "ELEMENT_SET_NO": 999, "REV_AT_EPOCH": 243, "BSTAR": -0.00076493, "MEAN_MOTION_DOT": -0.00230451, "MEAN_MOTION_DDOT": 2.1177e-05}, "tle": {"line1": "1 67099U 25298AA  25356.16668980 -.00230451  21177-4 -76493-3 0  9993", "line2": "2 67099  69.9967 223.2310 0003443 277.7390 105.0239 15.89953327  2432"}}, "geometry": {"type": "Point", "coordinates": [-141.78610437299739, -11.64666624588404]}}, {"type": "Feature", "properties": {"norad_id": 67100, "name": "STARLINK-36215", "group": "last-30-days", "lat": -9.906983802509044, "lon": -141.13011295208256, "alt_km": 305.89129576445885, "timestamp": "2025-12-22T09:53:36.147976+00:00", "meta": {"OBJECT_NAME": "STARLINK-36215", "OBJECT_ID": "2025-298AB", "EPOCH": "2025-12-22T04:00:01.998720", "MEAN_MOTION": 15.90076884, "ECCENTRICITY": 0.0003394, "INCLINATION": 69.9967, "RA_OF_ASC_NODE": 223.2287, "ARG_OF_PERICENTER": 270.7339, "MEAN_ANOMALY": 113.8079, "EPHEMERIS_TYPE": 0, "CLASSIFICATION_TYPE": "U", "NORAD_CAT_ID": 67100, "ELEMENT_SET_NO": 999, "REV_AT_EPOCH": 249, "BSTAR": -0.0012596, "MEAN_MOTION_DOT": -0.00380904, "MEAN_MOTION_DDOT": 5.0177e-05}, "tle": {"line1": "1 67100U 25298AB  25356.16668980 -.00380904  50177-4 -12596-2 0  9990", "line2": "2 67100  69.9967 223.2287 0003394 270.7339 113.8079 15.90076884  2490"}}, "geometry": {"type": "Point", "coordinates": [-141.13011295208256, -9.906983802509044]}}]}